{"type": "FeatureCollection", "features": [ {"type": "Feature", "properties": {"norad_id": 28649, "name": "IRS-P5 (CARTOSAT-1)", "group": "resource", "lat": 27.383457923498177, "lon": 23.5353734921688, "alt_km": 595.2330991013041, "timestamp": "2025-12-27T17:24:57.049947+00:00", "meta": {"OBJECT_NAME": "IRS-P5 (CARTOSAT-1)", "OBJECT_ID": "2005-017A", "EPOCH": "2025-12-27T01:10:47.096544", "MEAN_MOTION": 14.90453087, "ECCENTRICITY": 4.68e-05, "INCLINATION": 97.5482, "RA_OF_ASC_NODE": 26.8273, "ARG_OF_PERICENTER": 77.8552, "MEAN_ANOMALY": 282.2719, "EPHEMERIS_TYPE": 0, "CLASSIFICATION_TYPE": "U", "NORAD_CAT_ID": 28649, "ELEMENT_SET_NO": 999, "REV_AT_EPOCH": 11817, "BSTAR": 0.00019183665, "MEAN_MOTION_DOT": 1.818e-05, "MEAN_MOTION_DDOT": 0}, "tle": {"line1": "1 28649U 05017A   25361.04915621  .00001818  00000+0  19184-3 0  9990", "line2": "2 28649  97.5482  26.8273 0000468  77.8552 282.2719 14.90453087118176"}}, "geometry": {"type": "Point", "coordinates": [23.5353734921688, 27.383457923498177]}}, {"type": "Feature", "properties": {"norad_id": 28893, "name": "SINAH 1", "group": "resource", "lat": 35.91205111332828, "lon": 124.28418769827842, "alt_km": 671.8036700816701, "timestamp": "2025-12-27T17:24:57.049958+00:00", "meta": {"OBJECT_NAME": "SINAH 1", "OBJECT_ID": "2005-043D", "EPOCH": "2025-12-27T10:41:20.812128", "MEAN_MOTION": 14.63978185, "ECCENTRICITY": 0.001573, "INCLINATION": 98.261, "RA_OF_ASC_NODE": 130.0428, "ARG_OF_PERICENTER": 94.1832, "MEAN_ANOMALY": 266.1168, "EPHEMERIS_TYPE": 0, "CLASSIFICATION_TYPE": "U", "NORAD_CAT_ID": 28893, "ELEMENT_SET_NO": 999, "REV_AT_EPOCH": 7539, "BSTAR": 0.00011514, "MEAN_MOTION_DOT": 5.55e-06, "MEAN_MOTION_DDOT": 0}, "tle": {"line1": "1 28893U 05043D   25361.44537977  .00000555  00000+0  11514-3 0  9994", "line2": "2 28893  98.2610 130.0428 0015730  94.1832 266.1168 14.63978185 75395"}}, "geometry": {"type": "Point", "coordinates": [124.28418769827842, 35.91205111332828]}}, {"type": "Feature", "properties": {"norad_id": 29079, "name": "EROS B", "group": "resource", "lat": 33.10047280829627, "lon": 114.24327093297175, "alt_km": 346.6371832680088, "timestamp": "2025-12-27T17:24:57.049969+00:00", "meta": {"OBJECT_NAME": "EROS B", "OBJECT_ID": "2006-014A", "EPOCH": "2025-12-27T12:41:42.881856", "MEAN_MOTION": 15.7336517, "ECCENTRICITY": 0.0005029, "INCLINATION": 97.3441, "RA_OF_ASC_NODE": 118.859, "ARG_OF_PERICENTER": 313.2031, "MEAN_ANOMALY": 46.8812, "EPHEMERIS_TYPE": 0, "CLASSIFICATION_TYPE": "U", "NORAD_CAT_ID": 29079, "ELEMENT_SET_NO": 999, "REV_AT_EPOCH": 9312, "BSTAR": 0.0015559, "MEAN_MOTION_DOT": 0.00220224, "MEAN_MOTION_DDOT": 0}, "tle": {"line1": "1 29079U 06014A   25361.52896854  .00220224  00000+0  15559-2 0  9990", "line2": "2 29079  97.3441 118.8590 0005029 313.2031  46.8812 15.73365170 93120"}}, "geometry": {"type": "Point", "coordinates": [114.24327093297175, 33.10047280829627]}}, {"type": "Feature", "properties": {"norad_id": 29228, "name": "RESURS-DK 1", "group": "resource", "lat": 58.863997647796566, "lon": 100.34312194254885, "alt_km": 527.874586324956, "timestamp": "2025-12-27T17:24:57.049979+00:00", "meta": {"OBJECT_NAME": "RESURS-DK 1", "OBJECT_ID": "2006-021A", "EPOCH": "2025-12-27T07:36:04.257216", "MEAN_MOTION": 15.12243621, "ECCENTRICITY": 0.00069834, "INCLINATION": 69.9337, "RA_OF_ASC_NODE": 64.164, "ARG_OF_PERICENTER": 246.1035, "MEAN_ANOMALY": 113.94, "EPHEMERIS_TYPE": 0, "CLASSIFICATION_TYPE": "U", "NORAD_CAT_ID": 29228, "ELEMENT_SET_NO": 999, "REV_AT_EPOCH": 7658, "BSTAR": 0.00019269204, "MEAN_MOTION_DOT": 3.233e-05, "MEAN_MOTION_DDOT": 0}, "tle": {"line1": "1 29228U 06021A   25361.31671594  .00003233  00000+0  19269-3 0  9995", "line2": "2 29228  69.9337  64.1640 0006983 246.1035 113.9400 15.12243621 76581"}}, "geometry": {"type": "Point", "coordinates": [100.34312194254885, 58.863997647796566]}}, {"type": "Feature", "properties": {"norad_id": 29268, "name": "ARIRANG-2 (KOMPSAT-2)", "group": "resource", "lat": -29.591734567347984, "lon": -166.05219844453308, "alt_km": 681.8473609392231, "timestamp": "2025-12-27T17:24:57.049990+00:00", "meta": {"OBJECT_NAME": "ARIRANG-2 (KOMPSAT-2)", "OBJECT_ID": "2006-031A", "EPOCH": "2025-12-27T13:00:57.970368", "MEAN_MOTION": 14.64507274, "ECCENTRICITY": 0.0013159, "INCLINATION": 97.8262, "RA_OF_ASC_NODE": 189.2937, "ARG_OF_PERICENTER": 257.9295, "MEAN_ANOMALY": 186.2005, "EPHEMERIS_TYPE": 0, "CLASSIFICATION_TYPE": "U", "NORAD_CAT_ID": 29268, "ELEMENT_SET_NO": 999, "REV_AT_EPOCH": 3635, "BSTAR": 0.00010005, "MEAN_MOTION_DOT": 4.86e-06, "MEAN_MOTION_DDOT": 0}, "tle": {"line1": "1 29268U 06031A   25361.54233762  .00000486  00000+0  10005-3 0  9992", "line2": "2 29268  97.8262 189.2937 0013159 257.9295 186.2005 14.64507274 36359"}}, "geometry": {"type": "Point", "coordinates": [-166.05219844453308, -29.591734567347984]}}, {"type": "Feature", "properties": {"norad_id": 29709, "name": "LAPAN-TUBSAT", "group": "resource", "lat": -33.71109929087831, "lon": -2.338023555101617, "alt_km": 613.5250669635443, "timestamp": "2025-12-27T17:24:57.050000+00:00", "meta": {"OBJECT_NAME": "LAPAN-TUBSAT", "OBJECT_ID": "2007-001A", "EPOCH": "2025-12-27T12:43:10.513056", "MEAN_MOTION": 14.85693206, "ECCENTRICITY": 0.0013026, "INCLINATION": 98.1268, "RA_OF_ASC_NODE": 351.9914, "ARG_OF_PERICENTER": 30.0127, "MEAN_ANOMALY": 330.1832, "EPHEMERIS_TYPE": 0, "CLASSIFICATION_TYPE": "U", "NORAD_CAT_ID": 29709, "ELEMENT_SET_NO": 999, "REV_AT_EPOCH": 2566, "BSTAR": 0.00013174, "MEAN_MOTION_DOT": 1.087e-05, "MEAN_MOTION_DDOT": 0}, "tle": {"line1": "1 29709U 07001A   25361.52998279  .00001087  00000+0  13174-3 0  9997", "line2": "2 29709  98.1268 351.9914 0013026  30.0127 330.1832 14.85693206 25663"}}, "geometry": {"type": "Point", "coordinates": [-2.338023555101617, -33.71109929087831]}}, {"type": "Feature", "properties": {"norad_id": 31113, "name": "HAIYANG-1B", "group": "resource", "lat": 35.49996062660454, "lon": 171.38670891104684, "alt_km": 794.3402073263196, "timestamp": "2025-12-27T17:24:57.050014+00:00", "meta": {"OBJECT_NAME": "HAIYANG-1B", "OBJECT_ID": "2007-010A", "EPOCH": "2025-12-27T04:59:54.758688", "MEAN_MOTION": 14.30969898, "ECCENTRICITY": 0.00134765, "INCLINATION": 98.3331, "RA_OF_ASC_NODE": 344.8896, "ARG_OF_PERICENTER": 356.379, "MEAN_ANOMALY": 3.7294, "EPHEMERIS_TYPE": 0, "CLASSIFICATION_TYPE": "U", "NORAD_CAT_ID": 31113, "ELEMENT_SET_NO": 999, "REV_AT_EPOCH": 97603, "BSTAR": 7.5272376e-05, "MEAN_MOTION_DOT": 1.56e-06, "MEAN_MOTION_DDOT": 0}, "tle": {"line1": "1 31113U 07010A   25361.20827267  .00000156  00000+0  75272-4 0  9996", "line2": "2 31113  98.3331 344.8896 0013476 356.3790   3.7294 14.30969898976031"}}, "geometry": {"type": "Point", "coordinates": [171.38670891104684, 35.49996062660454]}}, {"type": "Feature", "properties": {"norad_id": 31598, "name": "COSMO-SKYMED 1", "group": "resource", "lat": 70.25589180919246, "lon": 29.934010515363212, "alt_km": 572.2115605121817, "timestamp": "2025-12-27T17:24:57.050024+00:00", "meta": {"OBJECT_NAME": "COSMO-SKYMED 1", "OBJECT_ID": "2007-023A", "EPOCH": "2025-12-27T12:07:05.128608", "MEAN_MOTION": 14.95874437, "ECCENTRICITY": 0.0001079, "INCLINATION": 97.8838, "RA_OF_ASC_NODE": 187.0018, "ARG_OF_PERICENTER": 78.1288, "MEAN_ANOMALY": 282.0053, "EPHEMERIS_TYPE": 0, "CLASSIFICATION_TYPE": "U", "NORAD_CAT_ID": 31598, "ELEMENT_SET_NO": 999, "REV_AT_EPOCH": 411, "BSTAR": 0.00035237, "MEAN_MOTION_DOT": 3.881e-05, "MEAN_MOTION_DDOT": 0}, "tle": {"line1": "1 31598U 07023A   25361.50492047  .00003881  00000+0  35237-3 0  9998", "line2": "2 31598  97.8838 187.0018 0001079  78.1288 282.0053 14.95874437  4115"}}, "geometry": {"type": "Point", "coordinates": [29.934010515363212, 70.25589180919246]}}, {"type": "Feature", "properties": {"norad_id": 31698, "name": "TERRASAR-X", "group": "resource", "lat": -58.9516240665611, "lon": 19.43268229287674, "alt_km": 516.4393012305763, "timestamp": "2025-12-27T17:24:57.050035+00:00", "meta": {"OBJECT_NAME": "TERRASAR-X", "OBJECT_ID": "2007-026A", "EPOCH": "2025-12-26T13:13:25.268160", "MEAN_MOTION": 15.19159007, "ECCENTRICITY": 0.0001831, "INCLINATION": 97.4449, "RA_OF_ASC_NODE": 5.7296, "ARG_OF_PERICENTER": 80.7089, "MEAN_ANOMALY": 279.4352, "EPHEMERIS_TYPE": 0, "CLASSIFICATION_TYPE": "U", "NORAD_CAT_ID": 31698, "ELEMENT_SET_NO": 999, "REV_AT_EPOCH": 2701, "BSTAR": 7.4512e-05, "MEAN_MOTION_DOT": 1.498e-05, "MEAN_MOTION_DDOT": 0}, "tle": {"line1": "1 31698U 07026A   25360.55098690  .00001498  00000+0  74512-4 0  9994", "line2": "2 31698  97.4449   5.7296 0001831  80.7089 279.4352 15.19159007 27010"}}, "geometry": {"type": "Point", "coordinates": [19.43268229287674, -58.9516240665611]}}, {"type": "Feature", "properties": {"norad_id": 32060, "name": "WORLDVIEW-1 (WV-1)", "group": "resource", "lat": -39.25240567766857, "lon": -67.09597199214852, "alt_km": 501.51602682428165, "timestamp": "2025-12-27T17:24:57.050046+00:00", "meta": {"OBJECT_NAME": "WORLDVIEW-1 (WV-1)", "OBJECT_ID": "2007-041A", "EPOCH": "2025-12-27T07:00:01.279008", "MEAN_MOTION": 15.23997296, "ECCENTRICITY": 0.00030075, "INCLINATION": 97.3816, "RA_OF_ASC_NODE": 118.5576, "ARG_OF_PERICENTER": 346.3085, "MEAN_ANOMALY": 13.807, "EPHEMERIS_TYPE": 0, "CLASSIFICATION_TYPE": "U", "NORAD_CAT_ID": 32060, "ELEMENT_SET_NO": 999, "REV_AT_EPOCH": 1669, "BSTAR": 0.0003911353, "MEAN_MOTION_DOT": 9.407e-05, "MEAN_MOTION_DDOT": 0}, "tle": {"line1": "1 32060U 07041A   25361.29168147  .00009407  00000+0  39114-3 0  9998", "line2": "2 32060  97.3816 118.5576 0003007 346.3085  13.8070 15.23997296 16693"}}, "geometry": {"type": "Point", "coordinates": [-67.09597199214852, -39.25240567766857]}}]}